GLOBALSTAR M001         
1 25162U 98008A   24219.93239576 -.00000084  00000+0  97287-4 0  9992
2 25162  52.0018 167.8739 0001789 318.8547  83.6762 12.38189907204787
GLOBALSTAR M004         
1 25163U 98008B   24219.62152234 -.00000037  00000+0  37001-3 0  9999
2 25163  52.0005 293.8005 0002491 312.7592 224.1991 12.63367384221920
GLOBALSTAR M002         
1 25164U 98008C   24219.71081495 -.00000080  00000+0 -59333-4 0  9992
2 25164  52.0031 308.7007 0000850 279.1275  80.9449 11.61502559147520
GLOBALSTAR M003         
1 25165U 98008D   24219.78374986  .00000055  00000+0  15400-2 0  9995
2 25165  51.9931 319.2880 0007866  25.7425 145.5122 12.12025084195091
GLOBALSTAR M014         
1 25306U 98023A   24219.82392831 -.00000073  00000+0  84335-4 0  9999
2 25306  51.9805 238.2497 0000925 151.1679  20.2675 11.65469835154513
GLOBALSTAR M006         
1 25307U 98023B   24219.56510274 -.00000039  00000+0  74181-3 0  9993
2 25307  51.9929 279.6204 0003714 252.0789 252.2838 11.58164049180370
GLOBALSTAR M015         
1 25308U 98023C   24219.88644229 -.00000067  00000+0  14081-3 0  9991
2 25308  51.9855   2.8818 0012096 234.6548 246.5353 11.48848386157956
GLOBALSTAR M008         
1 25309U 98023D   24219.92888972 -.00000068  00000+0  22466-3 0  9999
2 25309  51.9986  29.1537 0001906 218.7333 262.1898 12.36046336198984
